$$SOE
2460147.500000000, A.D. 2023-Jul-22 00:00:00.0000, -8.826138492628987E+07, -3.483182320835501E+08, 1.879940714183867E+07,
2460154.500000000, A.D. 2023-Jul-29 00:00:00.0000, -7.659987612252848E+07, -3.492681259779011E+08, 1.962580424816929E+07,
2460161.500000000, A.D. 2023-Aug-05 00:00:00.0000, -6.485747707044767E+07, -3.498488403656911E+08, 2.043145540532924E+07,
2460168.500000000, A.D. 2023-Aug-12 00:00:00.0000, -5.304561044200756E+07, -3.500544119365079E+08, 2.121519662017579E+07,
2460175.500000000, A.D. 2023-Aug-19 00:00:00.0000, -4.117611819808913E+07, -3.498791679395323E+08, 2.197585698458685E+07,
2460182.500000000, A.D. 2023-Aug-26 00:00:00.0000, -2.926126234531477E+07, -3.493177535502373E+08, 2.271226056579904E+07,
2460189.500000000, A.D. 2023-Sep-02 00:00:00.0000, -1.731372412859157E+07, -3.483651605257471E+08, 2.342322848156005E+07,
2460196.500000000, A.D. 2023-Sep-09 00:00:00.0000, -5.346601451471307E+06, -3.470167571339523E+08, 2.410758116034155E+07,
2460203.500000000, A.D. 2023-Sep-16 00:00:00.0000, 6.626595819378360E+06, -3.452683193417805E+08, 2.476414077291974E+07,
2460210.500000000, A.D. 2023-Sep-23 00:00:00.0000, 1.859195325991336E+07, -3.431160628833100E+08, 2.539173382599407E+07,
2460217.500000000, A.D. 2023-Sep-30 00:00:00.0000, 3.053516184440352E+07, -3.405566749022185E+08, 2.598919405018072E+07,
2460224.500000000, A.D. 2023-Oct-07 00:00:00.0000, 4.244152827625298E+07, -3.375873455716264E+08, 2.655536575572240E+07,
2460231.500000000, A.D. 2023-Oct-14 00:00:00.0000, 5.429598691127632E+07, -3.342058028391758E+08, 2.708910728927508E+07,
2460238.500000000, A.D. 2023-Oct-21 00:00:00.0000, 6.608311667473099E+07, -3.304103485068632E+08, 2.758929442445098E+07,
2460245.500000000, A.D. 2023-Oct-28 00:00:00.0000, 7.778716171015832E+07, -3.261998931732286E+08, 2.805482399749891E+07,
2460252.500000000, A.D. 2023-Nov-04 00:00:00.0000, 8.939205465892428E+07, -3.215739905676019E+08, 2.848461783305958E+07,
2460259.500000000, A.D. 2023-Nov-11 00:00:00.0000, 1.008814428804639E+08, -3.165328716074372E+08, 2.887762688480659E+07,
2460266.500000000, A.D. 2023-Nov-18 00:00:00.0000, 1.122387179441489E+08, -3.110774779471108E+08, 2.923283555240744E+07,
2460273.500000000, A.D. 2023-Nov-25 00:00:00.0000, 1.234470485511390E+08, -3.052094946728444E+08, 2.954926615297548E+07,
2460280.500000000, A.D. 2023-Dec-02 00:00:00.0000, 1.344894169703931E+08, -2.989313818060205E+08, 2.982598352220520E+07,
2460287.500000000, A.D. 2023-Dec-09 00:00:00.0000, 1.453486590904178E+08, -2.922464043025229E+08, 3.006209970806769E+07,
2460294.500000000, A.D. 2023-Dec-16 00:00:00.0000, 1.560075083607781E+08, -2.851586601481695E+08, 3.025677870368999E+07,
2460301.500000000, A.D. 2023-Dec-23 00:00:00.0000, 1.664486439137520E+08, -2.776731054631799E+08, 3.040924121249416E+07,
2460308.500000000, A.D. 2023-Dec-30 00:00:00.0000, 1.766547414178482E+08, -2.697955751558862E+08, 3.051876961877923E+07,
2460315.500000000, A.D. 2024-Jan-06 00:00:00.0000, 1.866085247299587E+08, -2.615328010669346E+08, 3.058471309283991E+07,
2460322.500000000, A.D. 2024-Jan-13 00:00:00.0000, 1.962928213058861E+08, -2.528924289902391E+08, 3.060649234736142E+07,
2460329.500000000, A.D. 2024-Jan-20 00:00:00.0000, 2.056906223268072E+08, -2.438830310775712E+08, 3.058360413838445E+07,
2460336.500000000, A.D. 2024-Jan-27 00:00:00.0000, 2.147851451895560E+08, -2.345141125855558E+08, 3.051562570179928E+07,
2460343.500000000, A.D. 2024-Feb-03 00:00:00.0000, 2.235598975507555E+08, -2.247961135491215E+08, 3.040221903655722E+07,
2460350.500000000, A.D. 2024-Feb-10 00:00:00.0000, 2.319987427648629E+08, -2.147404053410271E+08, 3.024313493342289E+07,
2460357.500000000, A.D. 2024-Feb-17 00:00:00.0000, 2.400859663651490E+08, -2.043592818208039E+08, 3.003821668497749E+07,
2460364.500000000, A.D. 2024-Feb-24 00:00:00.0000, 2.478063430854441E+08, -1.936659448216057E+08, 2.978740342321482E+07,
2460371.500000000, A.D. 2024-Mar-02 00:00:00.0000, 2.551452038700045E+08, -1.826744838306505E+08, 2.949073302898034E+07,
2460378.500000000, A.D. 2024-Mar-09 00:00:00.0000, 2.620885023915297E+08, -1.713998498144732E+08, 2.914834454668843E+07,
2460385.500000000, A.D. 2024-Mar-16 00:00:00.0000, 2.686228808303837E+08, -1.598578229520668E+08, 2.876048003970298E+07,
2460392.500000000, A.D. 2024-Mar-23 00:00:00.0000, 2.747357341583209E+08, -1.480649732123981E+08, 2.832748594924117E+07,
2460399.500000000, A.D. 2024-Mar-30 00:00:00.0000, 2.804152700225316E+08, -1.360386139401423E+08, 2.784981412812513E+07,
2460406.500000000, A.D. 2024-Apr-06 00:00:00.0000, 2.856505638153163E+08, -1.237967520352438E+08, 2.732802222021197E+07,
2460413.500000000, A.D. 2024-Apr-13 00:00:00.0000, 2.904316118229044E+08, -1.113580341809370E+08, 2.676277310165191E+07,
2460420.500000000, A.D. 2024-Apr-20 00:00:00.0000, 2.947493808832302E+08, -9.874168681182288E+07, 2.615483367289315E+07,
2460427.500000000, A.D. 2024-Apr-27 00:00:00.0000, 2.985958524737089E+08, -8.596745083196260E+07, 2.550507308984070E+07,
2460434.500000000, A.D. 2024-May-04 00:00:00.0000, 3.019640608197666E+08, -7.305551231513160E+07, 2.481446037647440E+07,
2460441.500000000, A.D. 2024-May-11 00:00:00.0000, 3.048481248327237E+08, -6.002642989171205E+07, 2.408406140686449E+07,
2460448.500000000, A.D. 2024-May-18 00:00:00.0000, 3.072432735996214E+08, -4.690105946224606E+07, 2.331503527618724E+07,
2460455.500000000, A.D. 2024-May-25 00:00:00.0000, 3.091458651688080E+08, -3.370047694830357E+07, 2.250863008953550E+07,
2460462.500000000, A.D. 2024-Jun-01 00:00:00.0000, 3.105533984982384E+08, -2.044589987004669E+07, 2.166617819672117E+07,
2460469.500000000, A.D. 2024-Jun-08 00:00:00.0000, 3.114645187115622E+08, -7.158608522551962E+06, 2.078909089328633E+07,
2460476.500000000, A.D. 2024-Jun-15 00:00:00.0000, 3.118790160502691E+08, 6.140133044709841E+06, 1.987885264584789E+07,
2460483.500000000, A.D. 2024-Jun-22 00:00:00.0000, 3.117978176058947E+08, 1.942915668838347E+07, 1.893701508821025E+07,
2460490.500000000, A.D. 2024-Jun-29 00:00:00.0000, 3.112229699063426E+08, 3.268746793627425E+07, 1.796519089932936E+07,
2460497.500000000, A.D. 2024-Jul-06 00:00:00.0000, 3.101576152751687E+08, 4.589431869845049E+07, 1.696504718392874E+07,
2460504.500000000, A.D. 2024-Jul-13 00:00:00.0000, 3.086059642557117E+08, 5.902927711473452E+07, 1.593829847367601E+07,
2460511.500000000, A.D. 2024-Jul-20 00:00:00.0000, 3.065732625331841E+08, 7.207229511444527E+07, 1.488669969317356E+07,
2460518.500000000, A.D. 2024-Jul-27 00:00:00.0000, 3.040657521819644E+08, 8.500377221995306E+07, 1.381203914057758E+07,
2460525.500000000, A.D. 2024-Aug-03 00:00:00.0000, 3.010906280433793E+08, 9.780461478110920E+07, 1.271613149303438E+07,
2460532.500000000, A.D. 2024-Aug-10 00:00:00.0000, 2.976559899691453E+08, 1.104562902745050E+08, 1.160081088401055E+07,
2460539.500000000, A.D. 2024-Aug-17 00:00:00.0000, 2.937707915727291E+08, 1.229408764068263E+08, 1.046792410855930E+07,
2460546.500000000, A.D. 2024-Aug-24 00:00:00.0000, 2.894447861255571E+08, 1.352411047974913E+08, 9.319324006017447E+06,
2460553.500000000, A.D. 2024-Aug-31 00:00:00.0000, 2.846884703266384E+08, 1.473403990552767E+08, 8.156863053070590E+06,
2460560.500000000, A.D. 2024-Sep-07 00:00:00.0000, 2.795130269180654E+08, 1.592229073254055E+08, 6.982387186443970E+06,
2460567.500000000, A.D. 2024-Sep-14 00:00:00.0000, 2.739302668167884E+08, 1.708735303187263E+08, 5.797729964170411E+06,
2460574.500000000, A.D. 2024-Sep-21 00:00:00.0000, 2.679525692844872E+08, 1.822779453211239E+08, 4.604707315351605E+06,
2460581.500000000, A.D. 2024-Sep-28 00:00:00.0000, 2.615928201803728E+08, 1.934226231112856E+08, 3.405112685199976E+06,
2460588.500000000, A.D. 2024-Oct-05 00:00:00.0000, 2.548643524675866E+08, 2.042948379850110E+08, 2.200712256370679E+06,
2460595.500000000, A.D. 2024-Oct-12 00:00:00.0000, 2.477808890563339E+08, 2.148826741012469E+08, 9.932405340085328E+05,
2460602.500000000, A.D. 2024-Oct-19 00:00:00.0000, 2.403564866302238E+08, 2.251750281558761E+08, -2.156035606469959E+05,
2460609.500000000, A.D. 2024-Oct-26 00:00:00.0000, 2.326054807767563E+08, 2.351616078876899E+08, -1.424160149292275E+06,
2460616.500000000, A.D. 2024-Nov-02 00:00:00.0000, 2.245424329837172E+08, 2.448329265930760E+08, -2.630811447459102E+06,
2460623.500000000, A.D. 2024-Nov-09 00:00:00.0000, 2.161820798519117E+08, 2.541802940075598E+08, -3.833984422025055E+06,
2460630.500000000, A.D. 2024-Nov-16 00:00:00.0000, 2.075392847538904E+08, 2.631958038994648E+08, -5.032153068594009E+06,
2460637.500000000, A.D. 2024-Nov-23 00:00:00.0000, 1.986289921416669E+08, 2.718723186748123E+08, -6.223840330751732E+06,
2460644.500000000, A.D. 2024-Nov-30 00:00:00.0000, 1.894661848249969E+08, 2.802034513011774E+08, -7.407619699802503E+06,
2460651.500000000, A.D. 2024-Dec-07 00:00:00.0000, 1.800658447172223E+08, 2.881835453186083E+08, -8.582116517581791E+06,
2460658.500000000, A.D. 2024-Dec-14 00:00:00.0000, 1.704429164062948E+08, 2.958076544946833E+08, -9.746008840129063E+06,
2460665.500000000, A.D. 2024-Dec-21 00:00:00.0000, 1.606122712403294E+08, 3.030715211945960E+08, -1.089802777224420E+07,
2460672.500000000, A.D. 2024-Dec-28 00:00:00.0000, 1.505886738804621E+08, 3.099715508048283E+08, -1.203695771807414E+07,
2460679.500000000, A.D. 2025-Jan-04 00:00:00.0000, 1.403867538861479E+08, 3.165047848705282E+08, -1.316163661608019E+07,
2460686.500000000, A.D. 2025-Jan-11 00:00:00.0000, 1.300209804503888E+08, 3.226688748531600E+08, -1.427095587912810E+07,
2460693.500000000, A.D. 2025-Jan-18 00:00:00.0000, 1.195056392793045E+08, 3.284620558136638E+08, -1.536386005201793E+07,
2460700.500000000, A.D. 2025-Jan-25 00:00:00.0000, 1.088548117520405E+08, 3.338831197535828E+08, -1.643934626748611E+07,
2460707.500000000, A.D. 2025-Feb-01 00:00:00.0000, 9.808235642997441E+07, 3.389313887772043E+08, -1.749646353958045E+07,
2460714.500000000, A.D. 2025-Feb-08 00:00:00.0000, 8.720189284798156E+07, 3.436066882741666E+08, -1.853431191722360E+07,
$$EOE